{"type": "FeatureCollection", "features": [ {"type": "Feature", "properties": {"norad_id": 66573, "name": "STARLINK-35650", "group": "last-30-days", "lat": -32.467265143572064, "lon": 106.13942428748942, "alt_km": 400.2049620612288, "timestamp": "2025-12-07T22:37:41.857529+00:00", "meta": {"OBJECT_NAME": "STARLINK-35650", "OBJECT_ID": "2025-268S", "EPOCH": "2025-12-07T06:00:04.999968", "MEAN_MOTION": 15.59232048, "ECCENTRICITY": 0.00018305, "INCLINATION": 43.0003, "RA_OF_ASC_NODE": 153.2984, "ARG_OF_PERICENTER": 273.4195, "MEAN_ANOMALY": 105.0446, "EPHEMERIS_TYPE": 0, "CLASSIFICATION_TYPE": "U", "NORAD_CAT_ID": 66573, "ELEMENT_SET_NO": 999, "REV_AT_EPOCH": 378, "BSTAR": -0.028599197, "MEAN_MOTION_DOT": -0.02021685, "MEAN_MOTION_DDOT": 0}, "tle": {"line1": "1 66573U 25268S   25341.25005787 -.02021685  00000+0 -28599-1 0  9998", "line2": "2 66573  43.0003 153.2984 0001830 273.4195 105.0446 15.59232048  3781"}}, "geometry": {"type": "Point", "coordinates": [106.13942428748942, -32.467265143572064]}}, {"type": "Feature", "properties": {"norad_id": 66574, "name": "STARLINK-35812", "group": "last-30-days", "lat": -31.49698271053243, "lon": 108.08400443460494, "alt_km": 400.33945630909784, "timestamp": "2025-12-07T22:37:41.857539+00:00", "meta": {"OBJECT_NAME": "STARLINK-35812", "OBJECT_ID": "2025-268T", "EPOCH": "2025-12-07T06:00:04.999968", "MEAN_MOTION": 15.59233237, "ECCENTRICITY": 0.00016609, "INCLINATION": 43, "RA_OF_ASC_NODE": 153.2932, "ARG_OF_PERICENTER": 270.5069, "MEAN_ANOMALY": 109.8753, "EPHEMERIS_TYPE": 0, "CLASSIFICATION_TYPE": "U", "NORAD_CAT_ID": 66574, "ELEMENT_SET_NO": 999, "REV_AT_EPOCH": 378, "BSTAR": -0.02861844, "MEAN_MOTION_DOT": -0.02022823, "MEAN_MOTION_DDOT": 0}, "tle": {"line1": "1 66574U 25268T   25341.25005787 -.02022823  00000+0 -28618-1 0  9996", "line2": "2 66574  43.0000 153.2932 0001660 270.5069 109.8753 15.59233237  3785"}}, "geometry": {"type": "Point", "coordinates": [108.08400443460494, -31.49698271053243]}}, {"type": "Feature", "properties": {"norad_id": 66575, "name": "STARLINK-35810", "group": "last-30-days", "lat": -30.497933696850904, "lon": 109.98856572935425, "alt_km": 400.216154765445, "timestamp": "2025-12-07T22:37:41.857549+00:00", "meta": {"OBJECT_NAME": "STARLINK-35810", "OBJECT_ID": "2025-268U", "EPOCH": "2025-12-07T06:00:04.999968", "MEAN_MOTION": 15.59237027, "ECCENTRICITY": 0.00017623, "INCLINATION": 42.9999, "RA_OF_ASC_NODE": 153.2886, "ARG_OF_PERICENTER": 271.6419, "MEAN_ANOMALY": 110.6504, "EPHEMERIS_TYPE": 0, "CLASSIFICATION_TYPE": "U", "NORAD_CAT_ID": 66575, "ELEMENT_SET_NO": 999, "REV_AT_EPOCH": 378, "BSTAR": -0.028621197, "MEAN_MOTION_DOT": -0.02023329, "MEAN_MOTION_DDOT": 0}, "tle": {"line1": "1 66575U 25268U   25341.25005787 -.02023329  00000+0 -28621-1 0  9993", "line2": "2 66575  42.9999 153.2886 0001762 271.6419 110.6504 15.59237027  3788"}}, "geometry": {"type": "Point", "coordinates": [109.98856572935425, -30.497933696850904]}}, {"type": "Feature", "properties": {"norad_id": 66576, "name": "STARLINK-35814", "group": "last-30-days", "lat": -29.472017538557935, "lon": 111.85301099582756, "alt_km": 400.2240211959588, "timestamp": "2025-12-07T22:37:41.857559+00:00", "meta": {"OBJECT_NAME": "STARLINK-35814", "OBJECT_ID": "2025-268V", "EPOCH": "2025-12-07T06:00:04.999968", "MEAN_MOTION": 15.5923292, "ECCENTRICITY": 0.00017885, "INCLINATION": 42.9999, "RA_OF_ASC_NODE": 153.2837, "ARG_OF_PERICENTER": 269.1519, "MEAN_ANOMALY": 115.0614, "EPHEMERIS_TYPE": 0, "CLASSIFICATION_TYPE": "U", "NORAD_CAT_ID": 66576, "ELEMENT_SET_NO": 999, "REV_AT_EPOCH": 378, "BSTAR": -0.028578341, "MEAN_MOTION_DOT": -0.02020423, "MEAN_MOTION_DDOT": 0}, "tle": {"line1": "1 66576U 25268V   25341.25005787 -.02020423  00000+0 -28578-1 0  9997", "line2": "2 66576  42.9999 153.2837 0001788 269.1519 115.0614 15.59232920  3784"}}, "geometry": {"type": "Point", "coordinates": [111.85301099582756, -29.472017538557935]}}, {"type": "Feature", "properties": {"norad_id": 66577, "name": "STARLINK-35815", "group": "last-30-days", "lat": -28.421242592699947, "lon": 113.67872989645554, "alt_km": 400.189165691334, "timestamp": "2025-12-07T22:37:41.857570+00:00", "meta": {"OBJECT_NAME": "STARLINK-35815", "OBJECT_ID": "2025-268W", "EPOCH": "2025-12-07T06:00:04.999968", "MEAN_MOTION": 15.5923339, "ECCENTRICITY": 0.00017988, "INCLINATION": 43, "RA_OF_ASC_NODE": 153.2791, "ARG_OF_PERICENTER": 269.0668, "MEAN_ANOMALY": 117.0631, "EPHEMERIS_TYPE": 0, "CLASSIFICATION_TYPE": "U", "NORAD_CAT_ID": 66577, "ELEMENT_SET_NO": 999, "REV_AT_EPOCH": 378, "BSTAR": -0.028584778, "MEAN_MOTION_DOT": -0.02020861, "MEAN_MOTION_DDOT": 0}, "tle": {"line1": "1 66577U 25268W   25341.25005787 -.02020861  00000+0 -28585-1 0  9992", "line2": "2 66577  43.0000 153.2791 0001798 269.0668 117.0631 15.59233390  3787"}}, "geometry": {"type": "Point", "coordinates": [113.67872989645554, -28.421242592699947]}}, {"type": "Feature", "properties": {"norad_id": 66578, "name": "STARLINK-35743", "group": "last-30-days", "lat": -27.34606730918469, "lon": 115.46867231074336, "alt_km": 400.1270530574102, "timestamp": "2025-12-07T22:37:41.857587+00:00", "meta": {"OBJECT_NAME": "STARLINK-35743", "OBJECT_ID": "2025-268X", "EPOCH": "2025-12-07T06:00:04.999968", "MEAN_MOTION": 15.59232398, "ECCENTRICITY": 0.00018157, "INCLINATION": 43.0002, "RA_OF_ASC_NODE": 153.2743, "ARG_OF_PERICENTER": 269.6415, "MEAN_ANOMALY": 118.4057, "EPHEMERIS_TYPE": 0, "CLASSIFICATION_TYPE": "U", "NORAD_CAT_ID": 66578, "ELEMENT_SET_NO": 999, "REV_AT_EPOCH": 378, "BSTAR": -0.028563049, "MEAN_MOTION_DOT": -0.02019464, "MEAN_MOTION_DDOT": 0}, "tle": {"line1": "1 66578U 25268X   25341.25005787 -.02019464  00000+0 -28563-1 0  9996", "line2": "2 66578  43.0002 153.2743 0001815 269.6415 118.4057 15.59232398  3787"}}, "geometry": {"type": "Point", "coordinates": [115.46867231074336, -27.34606730918469]}}, {"type": "Feature", "properties": {"norad_id": 66579, "name": "STARLINK-35868", "group": "last-30-days", "lat": -26.25109027277282, "lon": 117.21898932824753, "alt_km": 400.0398133513336, "timestamp": "2025-12-07T22:37:41.857600+00:00", "meta": {"OBJECT_NAME": "STARLINK-35868", "OBJECT_ID": "2025-268Y", "EPOCH": "2025-12-07T06:00:04.999968", "MEAN_MOTION": 15.59233929, "ECCENTRICITY": 0.00017955, "INCLINATION": 43.0003, "RA_OF_ASC_NODE": 153.2691, "ARG_OF_PERICENTER": 272.5437, "MEAN_ANOMALY": 117.4217, "EPHEMERIS_TYPE": 0, "CLASSIFICATION_TYPE": "U", "NORAD_CAT_ID": 66579, "ELEMENT_SET_NO": 999, "REV_AT_EPOCH": 378, "BSTAR": -0.028622204, "MEAN_MOTION_DOT": -0.02023206, "MEAN_MOTION_DDOT": 0}, "tle": {"line1": "1 66579U 25268Y   25341.25005787 -.02023206  00000+0 -28622-1 0  9992", "line2": "2 66579  43.0003 153.2691 0001795 272.5437 117.4217 15.59233929  3783"}}, "geometry": {"type": "Point", "coordinates": [117.21898932824753, -26.25109027277282]}}, {"type": "Feature", "properties": {"norad_id": 66580, "name": "STARLINK-35872", "group": "last-30-days", "lat": -25.13121088029877, "lon": 118.94332305604037, "alt_km": 400.0644825716008, "timestamp": "2025-12-07T22:37:41.857612+00:00", "meta": {"OBJECT_NAME": "STARLINK-35872", "OBJECT_ID": "2025-268Z", "EPOCH": "2025-12-07T06:00:04.999968", "MEAN_MOTION": 15.59231892, "ECCENTRICITY": 0.00016724, "INCLINATION": 43.0005, "RA_OF_ASC_NODE": 153.2649, "ARG_OF_PERICENTER": 272.0057, "MEAN_ANOMALY": 119.878, "EPHEMERIS_TYPE": 0, "CLASSIFICATION_TYPE": "U", "NORAD_CAT_ID": 66580, "ELEMENT_SET_NO": 999, "REV_AT_EPOCH": 378, "BSTAR": -0.028568572, "MEAN_MOTION_DOT": -0.02019659, "MEAN_MOTION_DDOT": 0}, "tle": {"line1": "1 66580U 25268Z   25341.25005787 -.02019659  00000+0 -28569-1 0  9991", "line2": "2 66580  43.0005 153.2649 0001672 272.0057 119.8780 15.59231892  3785"}}, "geometry": {"type": "Point", "coordinates": [118.94332305604037, -25.13121088029877]}}, {"type": "Feature", "properties": {"norad_id": 66581, "name": "STARLINK-35744", "group": "last-30-days", "lat": -23.994251785074546, "lon": 120.63039381793293, "alt_km": 399.9610550046682, "timestamp": "2025-12-07T22:37:41.857622+00:00", "meta": {"OBJECT_NAME": "STARLINK-35744", "OBJECT_ID": "2025-268AA", "EPOCH": "2025-12-07T06:00:04.999968", "MEAN_MOTION": 15.59233443, "ECCENTRICITY": 0.00017166, "INCLINATION": 43.0003, "RA_OF_ASC_NODE": 153.2594, "ARG_OF_PERICENTER": 273.5591, "MEAN_ANOMALY": 120.2406, "EPHEMERIS_TYPE": 0, "CLASSIFICATION_TYPE": "U", "NORAD_CAT_ID": 66581, "ELEMENT_SET_NO": 999, "REV_AT_EPOCH": 373, "BSTAR": -0.028605425, "MEAN_MOTION_DOT": -0.02022075, "MEAN_MOTION_DDOT": 0}, "tle": {"line1": "1 66581U 25268AA  25341.25005787 -.02022075  00000+0 -28605-1 0  9999", "line2": "2 66581  43.0003 153.2594 0001716 273.5591 120.2406 15.59233443  3731"}}, "geometry": {"type": "Point", "coordinates": [120.63039381793293, -23.994251785074546]}}, {"type": "Feature", "properties": {"norad_id": 66582, "name": "STARLINK-35746", "group": "last-30-days", "lat": -22.838037887612643, "lon": 122.2898554005238, "alt_km": 399.9814848458782, "timestamp": "2025-12-07T22:37:41.857635+00:00", "meta": {"OBJECT_NAME": "STARLINK-35746", "OBJECT_ID": "2025-268AB", "EPOCH": "2025-12-07T06:00:04.999968", "MEAN_MOTION": 15.59233017, "ECCENTRICITY": 0.0001634, "INCLINATION": 43.0003, "RA_OF_ASC_NODE": 153.2545, "ARG_OF_PERICENTER": 272.4824, "MEAN_ANOMALY": 123.2363, "EPHEMERIS_TYPE": 0, "CLASSIFICATION_TYPE": "U", "NORAD_CAT_ID": 66582, "ELEMENT_SET_NO": 999, "REV_AT_EPOCH": 378, "BSTAR": -0.028614069, "MEAN_MOTION_DOT": -0.02022517, "MEAN_MOTION_DDOT": 0}, "tle": {"line1": "1 66582U 25268AB  25341.25005787 -.02022517  00000+0 -28614-1 0  9991", "line2": "2 66582  43.0003 153.2545 0001634 272.4824 123.2363 15.59233017  3781"}}, "geometry": {"type": "Point", "coordinates": [122.2898554005238, -22.838037887612643]}}]}